[{"OBJECT_NAME":"HXMT (HUIYAN)","OBJECT_ID":"2017-034A","EPOCH":"2026-04-10T07:15:37.501632","MEAN_MOTION":15.17897017,"ECCENTRICITY":0.0030338,"INCLINATION":43.0135,"RA_OF_ASC_NODE":200.8622,"ARG_OF_PERICENTER":73.8793,"MEAN_ANOMALY":286.5392,"EPHEMERIS_TYPE":0,"CLASSIFICATION_TYPE":"U","NORAD_CAT_ID":42758,"ELEMENT_SET_NO":999,"REV_AT_EPOCH":48734,"BSTAR":0.00028160288,"MEAN_MOTION_DOT":5.641e-5,"MEAN_MOTION_DDOT":0},{"OBJECT_NAME":"SAOCOM 1A","OBJECT_ID":"2018-076A","EPOCH":"2026-04-10T06:54:33.410880","MEAN_MOTION":14.821451,"ECCENTRICITY":0.00014385,"INCLINATION":97.8908,"RA_OF_ASC_NODE":288.0144,"ARG_OF_PERICENTER":86.7616,"MEAN_ANOMALY":273.3762,"EPHEMERIS_TYPE":0,"CLASSIFICATION_TYPE":"U","NORAD_CAT_ID":43641,"ELEMENT_SET_NO":999,"REV_AT_EPOCH":40604,"BSTAR":9.1360087e-5,"MEAN_MOTION_DOT":6.75e-6,"MEAN_MOTION_DDOT":0},{"OBJECT_NAME":"H-2A R/B","OBJECT_ID":"2018-084L","EPOCH":"2026-04-10T04:54:19.054944","MEAN_MOTION":15.4276403,"ECCENTRICITY":0.00231125,"INCLINATION":98.8682,"RA_OF_ASC_NODE":324.356,"ARG_OF_PERICENTER":273.5337,"MEAN_ANOMALY":86.3263,"EPHEMERIS_TYPE":0,"CLASSIFICATION_TYPE":"U","NORAD_CAT_ID":43682,"ELEMENT_SET_NO":999,"REV_AT_EPOCH":41063,"BSTAR":0.0004456291,"MEAN_MOTION_DOT":0.00019585,"MEAN_MOTION_DDOT":0},{"OBJECT_NAME":"SAOCOM 1B","OBJECT_ID":"2020-059A","EPOCH":"2026-04-10T06:02:24.865152","MEAN_MOTION":14.8215439,"ECCENTRICITY":0.00014351,"INCLINATION":97.8895,"RA_OF_ASC_NODE":287.0741,"ARG_OF_PERICENTER":82.9946,"MEAN_ANOMALY":277.1431,"EPHEMERIS_TYPE":0,"CLASSIFICATION_TYPE":"U","NORAD_CAT_ID":46265,"ELEMENT_SET_NO":999,"REV_AT_EPOCH":30342,"BSTAR":-2.02457e-5,"MEAN_MOTION_DOT":-2.13e-6,"MEAN_MOTION_DDOT":0},{"OBJECT_NAME":"CSS (TIANHE)","OBJECT_ID":"2021-035A","EPOCH":"2026-04-10T04:24:14.867424","MEAN_MOTION":15.6220865,"ECCENTRICITY":0.00045337,"INCLINATION":41.4683,"RA_OF_ASC_NODE":16.3073,"ARG_OF_PERICENTER":175.1456,"MEAN_ANOMALY":184.9428,"EPHEMERIS_TYPE":0,"CLASSIFICATION_TYPE":"U","NORAD_CAT_ID":48274,"ELEMENT_SET_NO":999,"REV_AT_EPOCH":28253,"BSTAR":0.00030988009,"MEAN_MOTION_DOT":0.00027833,"MEAN_MOTION_DDOT":0},{"OBJECT_NAME":"COSMOS 2550","OBJECT_ID":"2021-056A","EPOCH":"2026-04-10T03:25:55.161984","MEAN_MOTION":15.33826857,"ECCENTRICITY":0.00083997,"INCLINATION":67.1407,"RA_OF_ASC_NODE":305.7383,"ARG_OF_PERICENTER":269.3401,"MEAN_ANOMALY":90.6791,"EPHEMERIS_TYPE":0,"CLASSIFICATION_TYPE":"U","NORAD_CAT_ID":48865,"ELEMENT_SET_NO":999,"REV_AT_EPOCH":26828,"BSTAR":3.15712e-7,"MEAN_MOTION_DOT":-1.81e-6,"MEAN_MOTION_DDOT":0},{"OBJECT_NAME":"CZ-2C R/B","OBJECT_ID":"2022-058K","EPOCH":"2026-04-10T05:57:18.387072","MEAN_MOTION":15.567388,"ECCENTRICITY":0.004071,"INCLINATION":50.1865,"RA_OF_ASC_NODE":155.655,"ARG_OF_PERICENTER":336.1428,"MEAN_ANOMALY":23.7656,"EPHEMERIS_TYPE":0,"CLASSIFICATION_TYPE":"U","NORAD_CAT_ID":52794,"ELEMENT_SET_NO":999,"REV_AT_EPOCH":21504,"BSTAR":0.00047147712,"MEAN_MOTION_DOT":0.00035372,"MEAN_MOTION_DDOT":0},{"OBJECT_NAME":"CZ-2C R/B","OBJECT_ID":"2022-132E","EPOCH":"2026-04-10T01:20:01.888224","MEAN_MOTION":15.65000434,"ECCENTRICITY":0.00145402,"INCLINATION":97.2956,"RA_OF_ASC_NODE":104.3968,"ARG_OF_PERICENTER":342.1761,"MEAN_ANOMALY":17.8987,"EPHEMERIS_TYPE":0,"CLASSIFICATION_TYPE":"U","NORAD_CAT_ID":54039,"ELEMENT_SET_NO":999,"REV_AT_EPOCH":19527,"BSTAR":0.00047717507,"MEAN_MOTION_DOT":0.00047105,"MEAN_MOTION_DDOT":0},{"OBJECT_NAME":"GSLV R/B","OBJECT_ID":"2022-138AN","EPOCH":"2026-04-10T03:22:39.942048","MEAN_MOTION":14.96975242,"ECCENTRICITY":0.00230367,"INCLINATION":87.384,"RA_OF_ASC_NODE":155.8296,"ARG_OF_PERICENTER":43.0868,"MEAN_ANOMALY":317.2162,"EPHEMERIS_TYPE":0,"CLASSIFICATION_TYPE":"U","NORAD_CAT_ID":54149,"ELEMENT_SET_NO":999,"REV_AT_EPOCH":18863,"BSTAR":0.00018139008,"MEAN_MOTION_DOT":2.125e-5,"MEAN_MOTION_DDOT":0},{"OBJECT_NAME":"XRISM","OBJECT_ID":"2023-137A","EPOCH":"2026-04-10T06:26:35.373408","MEAN_MOTION":15.1188337,"ECCENTRICITY":0.00076252,"INCLINATION":31.002,"RA_OF_ASC_NODE":79.3487,"ARG_OF_PERICENTER":355.9807,"MEAN_ANOMALY":4.0769,"EPHEMERIS_TYPE":0,"CLASSIFICATION_TYPE":"U","NORAD_CAT_ID":57800,"ELEMENT_SET_NO":999,"REV_AT_EPOCH":14257,"BSTAR":0.00028037801,"MEAN_MOTION_DOT":5.018e-5,"MEAN_MOTION_DDOT":0},{"OBJECT_NAME":"ACS3","OBJECT_ID":"2024-077B","EPOCH":"2026-04-10T05:37:32.100384","MEAN_MOTION":13.91182729,"ECCENTRICITY":0.00729353,"INCLINATION":97.1908,"RA_OF_ASC_NODE":34.2595,"ARG_OF_PERICENTER":7.8783,"MEAN_ANOMALY":352.351,"EPHEMERIS_TYPE":0,"CLASSIFICATION_TYPE":"U","NORAD_CAT_ID":59588,"ELEMENT_SET_NO":999,"REV_AT_EPOCH":9858,"BSTAR":0.024635389,"MEAN_MOTION_DOT":0.00031776,"MEAN_MOTION_DDOT":0},{"OBJECT_NAME":"HTV-X1","OBJECT_ID":"2025-241A","EPOCH":"2026-04-10T00:24:03.989376","MEAN_MOTION":15.32601237,"ECCENTRICITY":0.00073508,"INCLINATION":51.6366,"RA_OF_ASC_NODE":282.0284,"ARG_OF_PERICENTER":294.696,"MEAN_ANOMALY":65.3256,"EPHEMERIS_TYPE":0,"CLASSIFICATION_TYPE":"U","NORAD_CAT_ID":66174,"ELEMENT_SET_NO":999,"REV_AT_EPOCH":2574,"BSTAR":0.00017112685,"MEAN_MOTION_DOT":5.103e-5,"MEAN_MOTION_DDOT":0},{"OBJECT_NAME":"SZ-21 MODULE","OBJECT_ID":"2025-246C","EPOCH":"2026-04-10T02:51:13.012704","MEAN_MOTION":15.71176834,"ECCENTRICITY":0.0004089,"INCLINATION":41.4751,"RA_OF_ASC_NODE":9.5222,"ARG_OF_PERICENTER":251.7695,"MEAN_ANOMALY":108.2702,"EPHEMERIS_TYPE":0,"CLASSIFICATION_TYPE":"U","NORAD_CAT_ID":66515,"ELEMENT_SET_NO":999,"REV_AT_EPOCH":2301,"BSTAR":0.00028388016,"MEAN_MOTION_DOT":0.0003678,"MEAN_MOTION_DDOT":0}]
